[{"OBJECT_NAME":"HAWK-2A","OBJECT_ID":"2021-006CW","EPOCH":"2026-03-09T16:18:25.817472","MEAN_MOTION":15.33304498,"ECCENTRICITY":0.00064498,"INCLINATION":97.2459,"RA_OF_ASC_NODE":115.6184,"ARG_OF_PERICENTER":187.1463,"MEAN_ANOMALY":172.9689,"EPHEMERIS_TYPE":0,"CLASSIFICATION_TYPE":"U","NORAD_CAT_ID":47505,"ELEMENT_SET_NO":999,"REV_AT_EPOCH":28424,"BSTAR":0.0002543136,"MEAN_MOTION_DOT":8.113e-5,"MEAN_MOTION_DDOT":0},{"OBJECT_NAME":"STARLINK-32845","OBJECT_ID":"2025-018K","EPOCH":"2026-03-09T21:35:15.269856","MEAN_MOTION":15.30210645,"ECCENTRICITY":0.00017732,"INCLINATION":53.1586,"RA_OF_ASC_NODE":308.4026,"ARG_OF_PERICENTER":148.7409,"MEAN_ANOMALY":211.3697,"EPHEMERIS_TYPE":0,"CLASSIFICATION_TYPE":"U","NORAD_CAT_ID":62815,"ELEMENT_SET_NO":999,"REV_AT_EPOCH":6320,"BSTAR":0.00074431831,"MEAN_MOTION_DOT":0.00021757,"MEAN_MOTION_DDOT":0}]
